{
  "norad_id": 58796,
  "name": "STARLINK-31195",
  "history": [
    {
      "epoch": "2026-03-28T14:29:19.315392Z",
      "apogee_km": 483.653481484399,
      "perigee_km": 482.46100592484436,
      "latitude_deg": 4.469585480291667e-06,
      "longitude_deg": 15.510158442476953,
      "height_km": 482.9122827895595,
      "semi_major_axis_km": 6861.194243704622,
      "eccentricity": 8.69e-05,
      "inclination_deg": 43.0023,
      "raan_deg": 58.8624,
      "arg_perigee_deg": 262.4289,
      "mean_anomaly_deg": 97.6464,
      "mean_motion_rev_day": 15.27577279
    },
    {
      "epoch": "2026-03-29T04:36:43.513056Z",
      "apogee_km": 483.6712056744673,
      "perigee_km": 482.42384232800396,
      "latitude_deg": 4.9504009614448495e-06,
      "longitude_deg": 159.75580835368837,
      "height_km": 482.8817382262889,
      "semi_major_axis_km": 6861.184524001235,
      "eccentricity": 9.09e-05,
      "inclination_deg": 43.0024,
      "raan_deg": 55.5389,
      "arg_perigee_deg": 264.6935,
      "mean_anomaly_deg": 95.3813,
      "mean_motion_rev_day": 15.27580525
    }
  ]
}